{
  "type": "FeatureCollection",
  "features": [
    {
      "type": "Feature",
      "properties": {
        "norad_id": 34389,
        "name": "COSMOS 2251 DEB",
        "group": "cosmos-2251-debris",
        "lat": 51.69580271213779,
        "lon": 63.99022961155193,
        "alt_km": 753.969267194554,
        "timestamp": "2025-12-04T09:47:37.913921+00:00",
        "meta_object_name": "COSMOS 2251 DEB",
        "meta_object_id": "1993-036QE",
        "meta_epoch": "2025-12-03T21:51:38.590848",
        "meta_mean_motion": 14.41495051,
        "meta_eccentricity": 0.00284632,
        "meta_inclination": 74.0188,
        "meta_ra_of_asc_node": 266.1849,
        "meta_arg_of_pericenter": 20.1935,
        "meta_mean_anomaly": 45.5176,
        "meta_ephemeris_type": 0,
        "meta_classification_type": "U",
        "meta_norad_cat_id": 34389,
        "meta_element_set_no": 999,
        "meta_rev_at_epoch": 87885,
        "meta_bstar": 0.00075496126,
        "meta_mean_motion_dot": 2.437e-05,
        "meta_mean_motion_ddot": 0,
        "tle_line1": "1 34389U 93036QE  25337.91086332  .00002437  00000+0  75496-3 0  9999",
        "tle_line2": "2 34389  74.0188 266.1849 0028463  20.1935  45.5176 14.41495051878854"
      },
      "geometry": {
        "type": "Point",
        "coordinates": [
          63.99022961155193,
          51.69580271213779
        ]
      }
    },
    {
      "type": "Feature",
      "properties": {
        "norad_id": 34396,
        "name": "COSMOS 2251 DEB",
        "group": "cosmos-2251-debris",
        "lat": 29.871384049919584,
        "lon": -49.16718674012901,
        "alt_km": 642.0619333542736,
        "timestamp": "2025-12-04T09:47:37.913931+00:00",
        "meta_object_name": "COSMOS 2251 DEB",
        "meta_object_id": "1993-036QM",
        "meta_epoch": "2025-12-03T22:17:50.230176",
        "meta_mean_motion": 14.74011296,
        "meta_eccentricity": 0.0007409,
        "meta_inclination": 74.0273,
        "meta_ra_of_asc_node": 141.2363,
        "meta_arg_of_pericenter": 184.0532,
        "meta_mean_anomaly": 303.8182,
        "meta_ephemeris_type": 0,
        "meta_classification_type": "U",
        "meta_norad_cat_id": 34396,
        "meta_element_set_no": 999,
        "meta_rev_at_epoch": 88216,
        "meta_bstar": 0.0041340062,
        "meta_mean_motion_dot": 0.00027274,
        "meta_mean_motion_ddot": 0,
        "tle_line1": "1 34396U 93036QM  25337.92905359  .00027274  00000+0  41340-2 0  9993",
        "tle_line2": "2 34396  74.0273 141.2363 0007409 184.0532 303.8182 14.74011296882168"
      },
      "geometry": {
        "type": "Point",
        "coordinates": [
          -49.16718674012901,
          29.871384049919584
        ]
      }
    },
    {
      "type": "Feature",
      "properties": {
        "norad_id": 34400,
        "name": "COSMOS 2251 DEB",
        "group": "cosmos-2251-debris",
        "lat": -12.194410122304749,
        "lon": 38.190063970383115,
        "alt_km": 423.64767709767784,
        "timestamp": "2025-12-04T09:47:37.913942+00:00",
        "meta_object_name": "COSMOS 2251 DEB",
        "meta_object_id": "1993-036QR",
        "meta_epoch": "2025-12-03T05:56:19.095936",
        "meta_mean_motion": 15.48273281,
        "meta_eccentricity": 0.0007816,
        "meta_inclination": 73.9695,
        "meta_ra_of_asc_node": 44.3022,
        "meta_arg_of_pericenter": 269.3457,
        "meta_mean_anomaly": 90.686,
        "meta_ephemeris_type": 0,
        "meta_classification_type": "U",
        "meta_norad_cat_id": 34400,
        "meta_element_set_no": 999,
        "meta_rev_at_epoch": 89827,
        "meta_bstar": 0.0040315,
        "meta_mean_motion_dot": 0.00219083,
        "meta_mean_motion_ddot": 0,
        "tle_line1": "1 34400U 93036QR  25337.24744324  .00219083  00000+0  40315-2 0  9999",
        "tle_line2": "2 34400  73.9695  44.3022 0007816 269.3457  90.6860 15.48273281898279"
      },
      "geometry": {
        "type": "Point",
        "coordinates": [
          38.190063970383115,
          -12.194410122304749
        ]
      }
    },
    {
      "type": "Feature",
      "properties": {
        "norad_id": 34409,
        "name": "COSMOS 2251 DEB",
        "group": "cosmos-2251-debris",
        "lat": 12.971318655152514,
        "lon": 138.88807357757085,
        "alt_km": 734.1321506148151,
        "timestamp": "2025-12-04T09:47:37.913952+00:00",
        "meta_object_name": "COSMOS 2251 DEB",
        "meta_object_id": "1993-036RA",
        "meta_epoch": "2025-12-03T17:22:58.217952",
        "meta_mean_motion": 14.57991033,
        "meta_eccentricity": 0.0079481,
        "meta_inclination": 74.0627,
        "meta_ra_of_asc_node": 323.9601,
        "meta_arg_of_pericenter": 40.7465,
        "meta_mean_anomaly": 137.3179,
        "meta_ephemeris_type": 0,
        "meta_classification_type": "U",
        "meta_norad_cat_id": 34409,
        "meta_element_set_no": 999,
        "meta_rev_at_epoch": 89061,
        "meta_bstar": 0.0003448957,
        "meta_mean_motion_dot": 1.624e-05,
        "meta_mean_motion_ddot": 0,
        "tle_line1": "1 34409U 93036RA  25337.72428493  .00001624  00000+0  34490-3 0  9995",
        "tle_line2": "2 34409  74.0627 323.9601 0079481  40.7465 137.3179 14.57991033890614"
      },
      "geometry": {
        "type": "Point",
        "coordinates": [
          138.88807357757085,
          12.971318655152514
        ]
      }
    },
    {
      "type": "Feature",
      "properties": {
        "norad_id": 34410,
        "name": "COSMOS 2251 DEB",
        "group": "cosmos-2251-debris",
        "lat": -16.39625329183079,
        "lon": 104.4037888561144,
        "alt_km": 514.0426946139196,
        "timestamp": "2025-12-04T09:47:37.913962+00:00",
        "meta_object_name": "COSMOS 2251 DEB",
        "meta_object_id": "1993-036RB",
        "meta_epoch": "2025-12-03T22:08:19.253184",
        "meta_mean_motion": 15.17562106,
        "meta_eccentricity": 0.00207227,
        "meta_inclination": 73.7392,
        "meta_ra_of_asc_node": 280.509,
        "meta_arg_of_pericenter": 121.9342,
        "meta_mean_anomaly": 302.742,
        "meta_ephemeris_type": 0,
        "meta_classification_type": "U",
        "meta_norad_cat_id": 34410,
        "meta_element_set_no": 999,
        "meta_rev_at_epoch": 89640,
        "meta_bstar": 0.004683955,
        "meta_mean_motion_dot": 0.00095812,
        "meta_mean_motion_ddot": 0,
        "tle_line1": "1 34410U 93036RB  25337.92244506  .00095812  00000+0  46840-2 0  9993",
        "tle_line2": "2 34410  73.7392 280.5090 0020722 121.9342 302.7420 15.17562106896403"
      },
      "geometry": {
        "type": "Point",
        "coordinates": [
          104.4037888561144,
          -16.39625329183079
        ]
      }
    },
    {
      "type": "Feature",
      "properties": {
        "norad_id": 34412,
        "name": "COSMOS 2251 DEB",
        "group": "cosmos-2251-debris",
        "lat": -18.29969031241118,
        "lon": -25.186709696541858,
        "alt_km": 752.3764346719336,
        "timestamp": "2025-12-04T09:47:37.913972+00:00",
        "meta_object_name": "COSMOS 2251 DEB",
        "meta_object_id": "1993-036RD",
        "meta_epoch": "2025-12-03T10:39:06.052320",
        "meta_mean_motion": 14.46988265,
        "meta_eccentricity": 0.01871303,
        "meta_inclination": 73.9477,
        "meta_ra_of_asc_node": 342.0894,
        "meta_arg_of_pericenter": 79.4118,
        "meta_mean_anomaly": 282.8057,
        "meta_ephemeris_type": 0,
        "meta_classification_type": "U",
        "meta_norad_cat_id": 34412,
        "meta_element_set_no": 999,
        "meta_rev_at_epoch": 87516,
        "meta_bstar": 0.0011167847,
        "meta_mean_motion_dot": 5.031e-05,
        "meta_mean_motion_ddot": 0,
        "tle_line1": "1 34412U 93036RD  25337.44382005  .00005031  00000+0  11168-2 0  9998",
        "tle_line2": "2 34412  73.9477 342.0894 0187130  79.4118 282.8057 14.46988265875165"
      },
      "geometry": {
        "type": "Point",
        "coordinates": [
          -25.186709696541858,
          -18.29969031241118
        ]
      }
    },
    {
      "type": "Feature",
      "properties": {
        "norad_id": 34413,
        "name": "COSMOS 2251 DEB",
        "group": "cosmos-2251-debris",
        "lat": -61.29877121699682,
        "lon": -111.52357266404931,
        "alt_km": 772.7595814268734,
        "timestamp": "2025-12-04T09:47:37.913982+00:00",
        "meta_object_name": "COSMOS 2251 DEB",
        "meta_object_id": "1993-036RE",
        "meta_epoch": "2025-12-03T07:48:21.134304",
        "meta_mean_motion": 14.28961442,
        "meta_eccentricity": 0.0090642,
        "meta_inclination": 74.0314,
        "meta_ra_of_asc_node": 281.9739,
        "meta_arg_of_pericenter": 0.215,
        "meta_mean_anomaly": 126.7484,
        "meta_ephemeris_type": 0,
        "meta_classification_type": "U",
        "meta_norad_cat_id": 34413,
        "meta_element_set_no": 999,
        "meta_rev_at_epoch": 86996,
        "meta_bstar": 0.0025562,
        "meta_mean_motion_dot": 6.734e-05,
        "meta_mean_motion_ddot": 0,
        "tle_line1": "1 34413U 93036RE  25337.32524461  .00006734  00000+0  25562-2 0  9994",
        "tle_line2": "2 34413  74.0314 281.9739 0090642   0.2150 126.7484 14.28961442869965"
      },
      "geometry": {
        "type": "Point",
        "coordinates": [
          -111.52357266404931,
          -61.29877121699682
        ]
      }
    }
  ]
}